NORAD_CAT_ID,OBJECT_NAME,OBJECT_TYPE,EPOCH,MEAN_MOTION,ECCENTRICITY,INCLINATION,RA_OF_ASC_NODE,ARG_OF_PERICENTER,MEAN_ANOMALY,BSTAR,MEAN_MOTION_DOT,MEAN_MOTION_DDOT,TLE_LINE0,TLE_LINE1,TLE_LINE2,SEMIMAJOR_AXIS,PERIOD,APOGEE,PERIGEE,DECAYED
55962.0,STARLINK-5906,PAYLOAD,2024-04-27 13:31:45,14.98338738,0.0002729,70.0011,181.9543,268.2514,91.8332,3.4219e-05,3.15e-06,0.0,0 STARLINK-5906,1 55962U 23037BA  24118.56372369  .00000315  00000-0  34219-4 0  9991,2 55962  70.0011 181.9543 0002729 268.2514  91.8332 14.98338738 62443,6950.166,96.106,573.928,570.134,0.0
55962.0,STARLINK-5906,PAYLOAD,2024-04-27 21:32:26,14.9833289,0.0002934,70.0024,181.1113,271.1667,88.9156,-6.5509e-05,-8.75e-06,0.0,0 STARLINK-5906,1 55962U 23037BA  24118.89752794 -.00000875  00000-0 -65509-4 0  9990,2 55962  70.0024 181.1113 0002934 271.1667  88.9156 14.98332890 62491,6950.184,96.107,574.088,570.01,0.0
55962.0,STARLINK-5906,PAYLOAD,2024-04-28 03:56:59,14.98331732,0.0002438,70.0039,180.4381,269.2907,90.7973,-0.00017276,-2.154e-05,0.0,0 STARLINK-5906,1 55962U 23037BA  24119.16457469 -.00002154  00000-0 -17276-3 0  9991,2 55962  70.0039 180.4381 0002438 269.2907  90.7973 14.98331732 62874,6950.188,96.107,573.747,570.358,0.0
55962.0,STARLINK-5906,PAYLOAD,2024-04-28 13:33:48,14.98316229,0.0002944,70.0006,179.4289,271.5479,88.5343,-0.00022364,-2.759e-05,0.0,0 STARLINK-5906,1 55962U 23037BA  24119.56514662 -.00002759  00000-0 -22364-3 0  9999,2 55962  70.0006 179.4289 0002944 271.5479  88.5343 14.98316229 62932,6950.235,96.108,574.147,570.054,0.0
55962.0,STARLINK-5906,PAYLOAD,2024-04-28 21:34:28,14.98320118,0.0002978,70.0004,178.5864,272.4234,87.6584,-0.00016473,-2.057e-05,0.0,0 STARLINK-5906,1 55962U 23037BA  24119.89894481 -.00002057  00000-0 -16473-3 0  9990,2 55962  70.0004 178.5864 0002978 272.4234  87.6584 14.98320118 62642,6950.223,96.108,574.158,570.019,0.0
55962.0,STARLINK-5906,PAYLOAD,2024-04-29 05:35:09,14.98320421,0.0003106,70.0,177.7451,270.714,89.3664,-7.3722e-05,-9.72e-06,0.0,0 STARLINK-5906,1 55962U 23037BA  24120.23274339 -.00000972  00000-0 -73722-4 0  9999,2 55962  70.0000 177.7451 0003106 270.7140  89.3664 14.98320421 63031,6950.223,96.108,574.246,569.929,0.0
55962.0,STARLINK-5906,PAYLOAD,2024-04-29 13:35:49,14.98326373,0.0003127,70.0001,176.9031,270.3442,89.7358,-6.3972e-05,-8.56e-06,0.0,0 STARLINK-5906,1 55962U 23037BA  24120.56654095 -.00000856  00000-0 -63972-4 0  9993,2 55962  70.0001 176.9031 0003127 270.3442  89.7358 14.98326373 62744,6950.204,96.107,574.242,569.896,0.0
55962.0,STARLINK-5906,PAYLOAD,2024-04-29 21:36:29,14.98331825,0.0003234,70.0,176.0616,264.9013,95.1777,-6.2605e-05,-8.4e-06,0.0,0 STARLINK-5906,1 55962U 23037BA  24120.90033763 -.00000840  00000-0 -62605-4 0  9999,2 55962  70.0000 176.0616 0003234 264.9013  95.1777 14.98331825 62794,6950.187,96.107,574.3,569.805,0.0
55962.0,STARLINK-5906,PAYLOAD,2024-04-30 05:37:09,14.98319913,0.0003199,69.9997,175.2199,268.8785,91.2007,0.00025609,2.963e-05,0.0,0 STARLINK-5906,1 55962U 23037BA  24121.23413839  .00002963  00000-0  25609-3 0  9990,2 55962  69.9997 175.2199 0003199 268.8785  91.2007 14.98319913 63183,6950.224,96.108,574.312,569.866,0.0
55962.0,STARLINK-5906,PAYLOAD,2024-04-30 13:37:49,14.98325382,0.0003226,69.9997,174.3784,269.089,90.9899,0.00022633,2.608e-05,0.0,0 STARLINK-5906,1 55962U 23037BA  24121.56793734  .00002608  00000-0  22633-3 0  9991,2 55962  69.9997 174.3784 0003226 269.0890  90.9899 14.98325382 62893,6950.207,96.107,574.314,569.83,0.0
55962.0,STARLINK-5906,PAYLOAD,2024-05-01 05:39:09,14.98335836,0.0003226,69.9997,172.6953,269.1064,90.9725,0.00015618,1.771e-05,0.0,0 STARLINK-5906,1 55962U 23037BA  24122.23553205  .00001771  00000-0  15618-3 0  9998,2 55962  69.9997 172.6953 0003226 269.1064  90.9725 14.98335836 63339,6950.175,96.107,574.282,569.798,0.0
55962.0,STARLINK-5906,PAYLOAD,2024-05-01 10:27:33,14.98341003,0.0003258,69.9996,172.1904,269.2766,90.802,0.00016357,1.86e-05,0.0,0 STARLINK-5906,1 55962U 23037BA  24122.43580748  .00001860  00000-0  16357-3 0  9992,2 55962  69.9996 172.1904 0003258 269.2766  90.8020 14.98341003 63020,6950.159,96.106,574.288,569.76,0.0
55962.0,STARLINK-5906,PAYLOAD,2024-05-01 20:04:22,14.98339305,0.0003301,69.9994,171.1806,269.1863,90.8918,8.0988e-05,8.74e-06,0.0,0 STARLINK-5906,1 55962U 23037BA  24122.83636788  .00000874  00000-0  80988-4 0  9998,2 55962  69.9994 171.1806 0003301 269.1863  90.8918 14.98339305 63088,6950.164,96.106,574.323,569.735,0.0
55962.0,STARLINK-5906,PAYLOAD,2024-05-02 05:41:11,14.98334194,0.0003095,69.9999,170.1709,270.2855,89.795,-6.8278e-05,-9.08e-06,0.0,0 STARLINK-5906,1 55962U 23037BA  24123.23693393 -.00000908  00000-0 -68278-4 0  9996,2 55962  69.9999 170.1709 0003095 270.2855  89.7950 14.98334194 63486,6950.18,96.107,574.196,569.894,0.0
55962.0,STARLINK-5906,PAYLOAD,2024-05-02 12:05:43,14.98333805,0.0003075,70.0,169.4986,265.9492,94.1316,-6.0441e-05,-8.14e-06,0.0,0 STARLINK-5906,1 55962U 23037BA  24123.50397265 -.00000814  00000-0 -60441-4 0  9995,2 55962  70.0000 169.4986 0003075 265.9492  94.1316 14.98333805 63187,6950.181,96.107,574.183,569.909,0.0
55962.0,STARLINK-5906,PAYLOAD,2024-05-03 05:43:11,14.9834099,0.0003189,69.9992,167.6456,269.469,90.6104,-6.0206e-05,-8.12e-06,0.0,0 STARLINK-5906,1 55962U 23037BA  24124.23832399 -.00000812  00000-0 -60206-4 0  9995,2 55962  69.9992 167.6456 0003189 269.4690  90.6104 14.98340990 63630,6950.159,96.106,574.24,569.807,0.0
55962.0,STARLINK-5906,PAYLOAD,2024-05-03 12:07:43,14.98342471,0.000312,69.9996,166.9728,270.9657,89.1144,-4.7352e-05,-6.58e-06,0.0,0 STARLINK-5906,1 55962U 23037BA  24124.50536099 -.00000658  00000-0 -47352-4 0  9998,2 55962  69.9996 166.9728 0003120 270.9657  89.1144 14.98342471 63333,6950.154,96.106,574.188,569.851,0.0
55962.0,STARLINK-5906,PAYLOAD,2024-05-03 20:08:23,14.98332995,0.0003072,69.999,166.1307,271.3767,88.704,-3.3131e-05,-4.88e-06,0.0,0 STARLINK-5906,1 55962U 23037BA  24124.83916497 -.00000488  00000-0 -33131-4 0  9999,2 55962  69.9990 166.1307 0003072 271.3767  88.7040 14.98332995 63380,6950.184,96.107,574.184,569.914,0.0
55962.0,STARLINK-5906,PAYLOAD,2024-05-04 05:45:13,14.983137,0.0003185,69.9992,165.121,270.1722,89.9072,-0.00014892,-1.869e-05,0.0,0 STARLINK-5906,1 55962U 23037BA  24125.23974144 -.00001869  00000-0 -14892-3 0  9993,2 55962  69.9992 165.1210 0003185 270.1722  89.9072 14.98313700 63782,6950.243,96.108,574.322,569.895,0.0
55962.0,STARLINK-5906,PAYLOAD,2024-05-05 04:11:06,14.9831849,0.0003289,69.9987,162.7643,271.0259,89.0524,-0.00013323,-1.682e-05,0.0,0 STARLINK-5906,1 55962U 23037BA  24126.17438536 -.00001682  00000-0 -13323-3 0  9998,2 55962  69.9987 162.7643 0003289 271.0259  89.0524 14.98318490 63929,6950.228,96.108,574.379,569.808,0.0
55962.0,STARLINK-5906,PAYLOAD,2024-05-05 12:11:47,14.98320316,0.0003077,69.9993,161.9227,269.7487,90.3319,-0.00012333,-1.564e-05,0.0,0 STARLINK-5906,1 55962U 23037BA  24126.50818635 -.00001564  00000-0 -12333-3 0  9996,2 55962  69.9993 161.9227 0003077 269.7487  90.3319 14.98320316 63632,6950.223,96.108,574.226,569.949,0.0
55962.0,STARLINK-5906,PAYLOAD,2024-05-05 20:12:27,14.98323251,0.0003236,69.9989,161.0817,269.5408,90.538,1.8364e-07,-9.1e-07,0.0,0 STARLINK-5906,1 55962U 23037BA  24126.84198306 -.00000091  00000-0  18364-6 0  9995,2 55962  69.9989 161.0817 0003236 269.5408  90.5380 14.98323251 64026,6950.214,96.107,574.328,569.83,0.0
55962.0,STARLINK-5906,PAYLOAD,2024-05-06 12:13:47,14.98324338,0.0003181,69.9989,159.3978,269.4237,90.6558,0.00018756,2.145e-05,0.0,0 STARLINK-5906,1 55962U 23037BA  24127.50958097  .00002145  00000-0  18756-3 0  9993,2 55962  69.9989 159.3978 0003181 269.4237  90.6558 14.98324338 63789,6950.21,96.107,574.286,569.865,0.0
55962.0,STARLINK-5906,PAYLOAD,2024-05-07 04:15:08,14.98333499,0.0003258,69.9988,157.7147,268.7062,91.3723,0.00017085,1.946e-05,0.0,0 STARLINK-5906,1 55962U 23037BA  24128.17717608  .00001946  00000-0  17085-3 0  9990,2 55962  69.9988 157.7147 0003258 268.7062  91.3723 14.98333499 64221,6950.182,96.107,574.311,569.783,0.0
55962.0,STARLINK-5906,PAYLOAD,2024-05-07 12:15:48,14.98336848,0.0003236,69.9988,156.8731,268.8002,91.2787,0.00018991,2.174e-05,0.0,0 STARLINK-5906,1 55962U 23037BA  24128.51097223  .00002174  00000-0  18991-3 0  9993,2 55962  69.9988 156.8731 0003236 268.8002  91.2787 14.98336848 63938,6950.172,96.107,574.286,569.788,0.0
55962.0,STARLINK-5906,PAYLOAD,2024-05-07 18:40:20,14.98336647,0.0003204,69.999,156.1997,269.2632,90.816,0.0001261,1.412e-05,0.0,0 STARLINK-5906,1 55962U 23037BA  24128.77801282  .00001412  00000-0  12610-3 0  9995,2 55962  69.9990 156.1997 0003204 269.2632  90.8160 14.98336647 63978,6950.172,96.107,574.264,569.811,0.0
55962.0,STARLINK-5906,PAYLOAD,2024-05-08 04:17:08,14.98340238,0.0003166,69.9989,155.19,268.5622,91.5175,4.4394e-05,4.37e-06,0.0,0 STARLINK-5906,1 55962U 23037BA  24129.17857046  .00000437  00000-0  44394-4 0  9990,2 55962  69.9989 155.1900 0003166 268.5622  91.5175 14.98340238 64377,6950.161,96.106,574.227,569.826,0.0
55962.0,STARLINK-5906,PAYLOAD,2024-05-08 10:41:40,14.98341365,0.0003174,69.9989,154.5168,268.5085,91.5711,3.9775e-05,3.82e-06,0.0,0 STARLINK-5906,1 55962U 23037BA  24129.44560776  .00000382  00000-0  39775-4 0  9997,2 55962  69.9989 154.5168 0003174 268.5085  91.5711 14.98341365 64073,6950.158,96.106,574.229,569.817,0.0
55962.0,STARLINK-5906,PAYLOAD,2024-05-08 18:42:20,14.98340094,0.0003204,69.9989,153.6748,269.6782,90.401,-8.8948e-06,-1.99e-06,0.0,0 STARLINK-5906,1 55962U 23037BA  24129.77940719 -.00000199  00000-0 -88948-5 0  9997,2 55962  69.9989 153.6748 0003204 269.6782  90.4010 14.98340094 64121,6950.162,96.106,574.254,569.8,0.0
55962.0,STARLINK-5906,PAYLOAD,2024-05-09 04:19:09,14.98338331,0.0003107,69.9991,152.6654,268.0037,92.0766,-8.0191e-05,-1.05e-05,0.0,0 STARLINK-5906,1 55962U 23037BA  24130.17996764 -.00001050  00000-0 -80191-4 0  9992,2 55962  69.9991 152.6654 0003107 268.0037  92.0766 14.98338331 64528,6950.167,96.106,574.192,569.873,0.0
